NORAD_CAT_ID,OBJECT_NAME,OBJECT_TYPE,EPOCH,MEAN_MOTION,ECCENTRICITY,INCLINATION,RA_OF_ASC_NODE,ARG_OF_PERICENTER,MEAN_ANOMALY,BSTAR,MEAN_MOTION_DOT,MEAN_MOTION_DDOT,TLE_LINE0,TLE_LINE1,TLE_LINE2,SEMIMAJOR_AXIS,PERIOD,APOGEE,PERIGEE,DECAYED
55781.0,STARLINK-5820,PAYLOAD,2023-06-19 11:45:28,15.40428078,0.0004276,69.9976,213.9192,278.7207,81.349,-0.0042183,-0.0016774,0.0,0 STARLINK-5820,1 55781U 23028AS  23170.48991827 -.00167740  00000-0 -42183-2 0  9999,2 55781  69.9976 213.9192 0004276 278.7207  81.3490 15.40428078 17544,6822.982,93.481,447.764,441.929,0.0
55781.0,STARLINK-5820,PAYLOAD,2023-06-19 12:00:00,15.39153557,0.0003265,69.9991,213.8903,274.8329,142.9168,-0.015664,-0.00566936,0.0,0 STARLINK-5820,1 55781U 23028AS  23170.50001157 -.00566936  00000-0 -15664-1 0  9993,2 55781  69.9991 213.8903 0003265 274.8329 142.9168 15.39153557 17540,6826.748,93.558,450.842,446.384,0.0
55781.0,STARLINK-5820,PAYLOAD,2023-06-19 22:00:00,15.38594228,0.0003224,69.9991,212.7722,268.4367,296.9908,-0.0152,-0.00541894,0.0,0 STARLINK-5820,1 55781U 23028AS  23170.91667824 -.00541894  00000-0 -15200-1 0  9999,2 55781  69.9991 212.7722 0003224 268.4367 296.9908 15.38594228 17605,6828.402,93.592,452.469,448.066,0.0
55781.0,STARLINK-5820,PAYLOAD,2023-06-20 04:00:00,15.38341154,0.000326,69.9993,212.102,268.124,241.4926,-0.018977,-0.00668672,0.0,0 STARLINK-5820,1 55781U 23028AS  23171.16667824 -.00668672  00000-0 -18977-1 0  9995,2 55781  69.9993 212.1020 0003260 268.1240 241.4926 15.38341154 17646,6829.151,93.607,453.243,448.79,0.0
55781.0,STARLINK-5820,PAYLOAD,2023-06-20 14:00:01,15.37764699,0.0003477,69.9987,210.9852,273.2808,22.7152,-0.017636,-0.00606829,0.0,0 STARLINK-5820,1 55781U 23028AS  23171.58334491 -.00606829  00000-0 -17636-1 0  9999,2 55781  69.9987 210.9852 0003477 273.2808  22.7152 15.37764699  1304,6830.858,93.642,455.098,450.348,0.0
55781.0,STARLINK-5820,PAYLOAD,2023-06-20 22:00:00,15.37288924,0.0003518,69.9989,210.0925,268.5744,71.9445,-0.015864,-0.00542041,0.0,0 STARLINK-5820,1 55781U 23028AS  23171.91667824 -.00542041  00000-0 -15864-1 0  9991,2 55781  69.9989 210.0925 0003518 268.5744  71.9445 15.37288924 17760,6832.267,93.671,456.536,451.729,0.0
55781.0,STARLINK-5820,PAYLOAD,2023-06-21 14:00:01,15.36455329,0.0003632,69.9988,208.3088,275.2683,152.691,-0.018203,-0.00600794,0.0,0 STARLINK-5820,1 55781U 23028AS  23172.58334491 -.00600794  00000-0 -18203-1 0  9996,2 55781  69.9988 208.3088 0003632 275.2683 152.6910 15.36455329 17862,6834.738,93.722,459.086,454.121,0.0
55781.0,STARLINK-5820,PAYLOAD,2023-06-21 22:00:01,15.359874,0.0003543,69.9989,207.4178,269.0739,201.9033,-0.01662,-0.00544324,0.0,0 STARLINK-5820,1 55781U 23028AS  23172.91668981 -.00544324  00000-0 -16620-1 0  9994,2 55781  69.9989 207.4178 0003543 269.0739 201.9033 15.35987400  1302,6836.126,93.751,460.413,455.569,0.0
55781.0,STARLINK-5820,PAYLOAD,2023-06-22 14:00:01,15.35152191,0.000353,69.999,205.6376,272.867,282.3598,-0.019091,-0.00603971,0.0,0 STARLINK-5820,1 55781U 23028AS  23173.58334491 -.00603971  00000-0 -19091-1 0  9993,2 55781  69.9990 205.6376 0003530 272.8670 282.3598 15.35152191 18012,6838.605,93.802,462.885,458.056,0.0
55781.0,STARLINK-5820,PAYLOAD,2023-06-23 14:00:01,15.33860553,0.0003609,69.9992,202.9716,272.072,45.7237,-0.020557,-0.00629776,0.0,0 STARLINK-5820,1 55781U 23028AS  23174.58334491 -.00629776  00000-0 -20557-1 0  9994,2 55781  69.9992 202.9716 0003609 272.0720  45.7237 15.33860553 18171,6842.444,93.881,466.778,461.84,0.0
55781.0,STARLINK-5820,PAYLOAD,2023-06-24 22:00:00,15.32073853,0.0003417,69.9995,199.4259,267.9283,206.0134,-0.018707,-0.00541229,0.0,0 STARLINK-5820,1 55781U 23028AS  23175.91667824 -.00541229  00000-0 -18707-1 0  9991,2 55781  69.9995 199.4259 0003417 267.9283 206.0134 15.32073853 18378,6847.763,93.99,471.968,467.288,0.0
55781.0,STARLINK-5820,PAYLOAD,2023-06-25 06:00:00,15.31674241,0.0003374,69.9996,198.5409,269.7942,241.8732,-0.022019,-0.00629618,0.0,0 STARLINK-5820,1 55781U 23028AS  23176.25001157 -.00629618  00000-0 -22019-1 0  9990,2 55781  69.9996 198.5409 0003374 269.7942 241.8732 15.31674241 18424,6848.954,94.015,473.13,468.508,0.0
55781.0,STARLINK-5820,PAYLOAD,2023-06-26 06:00:00,15.30365761,0.0003274,69.9999,195.8895,268.8994,352.8272,-0.022659,-0.00622503,0.0,0 STARLINK-5820,1 55781U 23028AS  23177.25001157 -.00622503  00000-0 -22659-1 0  9997,2 55781  69.9999 195.8895 0003274 268.8994 352.8272 15.30365761 18573,6852.857,94.095,476.966,472.479,0.0
55781.0,STARLINK-5820,PAYLOAD,2023-06-27 14:00:01,15.28657109,0.0003269,69.9995,192.362,274.0275,127.1244,-0.025366,-0.00658374,0.0,0 STARLINK-5820,1 55781U 23028AS  23178.58334491 -.00658374  00000-0 -25366-1 0  9997,2 55781  69.9995 192.3620 0003269 274.0275 127.1244 15.28657109 18784,6857.963,94.2,482.07,477.586,0.0
55781.0,STARLINK-5820,PAYLOAD,2023-06-28 06:00:00,15.27751016,0.000319,69.9998,190.6018,269.7481,198.0148,-0.0242,-0.00613978,0.0,0 STARLINK-5820,1 55781U 23028AS  23179.25001157 -.00613978  00000-0 -24200-1 0  9999,2 55781  69.9998 190.6018 0003190 269.7481 198.0148 15.27751016 18884,6860.674,94.256,484.728,480.351,0.0
55781.0,STARLINK-5820,PAYLOAD,2023-06-28 14:00:01,15.27354491,0.0003079,69.9993,189.7224,272.8301,227.4273,-0.026629,-0.00663707,0.0,0 STARLINK-5820,1 55781U 23028AS  23179.58334491 -.00663707  00000-0 -26629-1 0  9997,2 55781  69.9993 189.7224 0003079 272.8301 227.4273 15.27354491 18937,6861.861,94.281,485.839,481.614,0.0
55781.0,STARLINK-5820,PAYLOAD,2023-06-29 22:00:00,15.25574771,0.000312,69.9989,186.2113,263.9805,1.1257,-0.024476,-0.00583312,0.0,0 STARLINK-5820,1 55781U 23028AS  23180.91667824 -.00583312  00000-0 -24476-1 0  9996,2 55781  69.9989 186.2113 0003120 263.9805   1.1257 15.25574771 19133,6867.197,94.391,491.205,486.919,0.0
55781.0,STARLINK-5820,PAYLOAD,2023-06-30 22:00:00,15.24273064,0.0003171,69.9986,183.5843,267.4301,85.8294,-0.025651,-0.005876,0.0,0 STARLINK-5820,1 55781U 23028AS  23181.91667824 -.00587600  00000-0 -25651-1 0  9997,2 55781  69.9986 183.5843 0003171 267.4301  85.8294 15.24273064 19293,6871.106,94.471,495.15,490.792,0.0
55781.0,STARLINK-5820,PAYLOAD,2023-07-01 14:00:01,15.23438122,0.000303,69.9983,181.8356,275.1046,134.31,-0.030064,-0.00665742,0.0,0 STARLINK-5820,1 55781U 23028AS  23182.58334491 -.00665742  00000-0 -30064-1 0  9990,2 55781  69.9983 181.8356 0003030 275.1046 134.3100 15.23438122 19390,6873.616,94.523,497.564,493.399,0.0
55781.0,STARLINK-5820,PAYLOAD,2023-07-02 04:00:00,15.22656487,0.0003147,69.9986,180.3076,270.9178,95.9385,-0.029343,-0.00636973,0.0,0 STARLINK-5820,1 55781U 23028AS  23183.16667824 -.00636973  00000-0 -29343-1 0  9996,2 55781  69.9986 180.3076 0003147 270.9178  95.9385 15.22656487 19486,6875.969,94.572,499.997,495.67,0.0
55781.0,STARLINK-5820,PAYLOAD,2023-07-04 06:00:02,15.19900753,0.0003004,69.9987,174.8654,274.5156,338.7696,-0.028199,-0.00568918,0.0,0 STARLINK-5820,1 55781U 23028AS  23185.25002315 -.00568918  00000-0 -28199-1 0  9997,2 55781  69.9987 174.8654 0003004 274.5156 338.7696 15.19900753 19796,6884.277,94.743,508.21,504.074,0.0
55781.0,STARLINK-5820,PAYLOAD,2023-07-04 22:00:01,15.19076198,0.0003068,69.999,173.1288,268.4524,30.541,-0.031878,-0.00623932,0.0,0 STARLINK-5820,1 55781U 23028AS  23185.91668981 -.00623932  00000-0 -31878-1 0  9993,2 55781  69.9990 173.1288 0003068 268.4524  30.5410 15.19076198 19907,6886.768,94.794,510.746,506.52,0.0
55781.0,STARLINK-5820,PAYLOAD,2023-07-06 06:00:00,15.17295183,0.0003038,69.9994,169.6624,276.7781,107.3761,-0.030539,-0.00571225,0.0,0 STARLINK-5820,1 55781U 23028AS  23187.25001157 -.00571225  00000-0 -30539-1 0  9998,2 55781  69.9994 169.6624 0003038 276.7781 107.3761 15.17295183 20100,6892.156,94.906,516.115,511.928,0.0
55781.0,STARLINK-5820,PAYLOAD,2023-07-06 22:00:01,15.16477008,0.0002976,69.9997,167.9326,269.0683,154.5978,-0.035211,-0.00638342,0.0,0 STARLINK-5820,1 55781U 23028AS  23187.91668981 -.00638342  00000-0 -35211-1 0  9991,2 55781  69.9997 167.9326 0002976 269.0683 154.5978 15.16477008 20201,6894.635,94.957,518.552,514.448,0.0
55781.0,STARLINK-5820,PAYLOAD,2023-07-07 22:00:00,15.15172604,0.000298,69.9998,165.3424,268.8048,210.0981,-0.036814,-0.0064953,0.0,0 STARLINK-5820,1 55781U 23028AS  23188.91667824 -.00649530  00000-0 -36814-1 0  9998,2 55781  69.9998 165.3424 0002980 268.8048 210.0981 15.15172604 20351,6898.592,95.039,522.512,518.401,0.0
55781.0,STARLINK-5820,PAYLOAD,2023-07-08 22:00:00,15.13871735,0.0002948,69.9997,162.7574,268.231,261.275,-0.038613,-0.00656219,0.0,0 STARLINK-5820,1 55781U 23028AS  23189.91667824 -.00656219  00000-0 -38613-1 0  9990,2 55781  69.9997 162.7574 0002948 268.2310 261.2750 15.13871735 20505,6902.543,95.12,526.443,522.373,0.0
55781.0,STARLINK-5820,PAYLOAD,2023-07-09 14:00:01,15.12977536,0.0002868,69.9992,161.0366,273.5639,287.0841,-0.038352,-0.00636817,0.0,0 STARLINK-5820,1 55781U 23028AS  23190.58334491 -.00636817  00000-0 -38352-1 0  9998,2 55781  69.9992 161.0366 0002868 273.5639 287.0841 15.12977536 20608,6905.262,95.177,529.108,525.147,0.0
55781.0,STARLINK-5820,PAYLOAD,2023-07-10 06:00:00,15.12077498,0.0002901,69.9992,159.3185,275.3693,314.3294,-0.035194,-0.00568068,0.0,0 STARLINK-5820,1 55781U 23028AS  23191.25001157 -.00568068  00000-0 -35194-1 0  9996,2 55781  69.9992 159.3185 0002901 275.3693 314.3294 15.12077498 20700,6908.002,95.233,531.871,527.863,0.0
55781.0,STARLINK-5820,PAYLOAD,2023-07-10 22:00:00,15.11267218,0.0003017,69.9991,157.6027,268.1453,348.4868,-0.042109,-0.00664764,0.0,0 STARLINK-5820,1 55781U 23028AS  23191.91667824 -.00664764  00000-0 -42109-1 0  9992,2 55781  69.9991 157.6027 0003017 268.1453 348.4868 15.11267218 20804,6910.471,95.284,534.421,530.251,0.0
55781.0,STARLINK-5820,PAYLOAD,2023-07-11 14:00:01,15.10360059,0.0002908,69.9986,155.8889,273.7358,7.7844,-0.040354,-0.00623773,0.0,0 STARLINK-5820,1 55781U 23028AS  23192.58334491 -.00623773  00000-0 -40354-1 0  9992,2 55781  69.9986 155.8889 0002908 273.7358   7.7844 15.10360059 20915,6913.238,95.342,537.113,533.093,0.0
